0 IRIDIUM 33 DEB
1 35926U 97051UK  13282.00651606  .00005024  00000-0  14609-2 0  5828
2 35926 086.3526 116.9775 0012979 027.5670 127.7730 14.44081934223886
0 IRIDIUM 33 DEB
1 35926U 97051UK  13283.50669522  .00004741  00000-0  13779-2 0  5833
2 35926 086.3527 116.3328 0012762 022.6482 006.7238 14.44096887224098
0 IRIDIUM 33 DEB
1 35926U 97051UK  13286.56186190  .00004635  00000-0  13464-2 0  5852
2 35926 086.3524 115.0193 0012506 013.0068 049.4008 14.44118626224535
0 IRIDIUM 33 DEB
1 35926U 97051UK  13287.96554679  .00008181  00000-0  23793-2 0  5865
2 35926 086.3519 114.4159 0012371 008.5964 146.7096 14.44132220224745
0 IRIDIUM 33 DEB
1 35926U 97051UK  13291.47513622  .00006269  00000-0  18210-2 0  5873
2 35926 086.3513 112.9071 0012016 356.4251 033.4583 14.44172776225244
0 IRIDIUM 33 DEB
1 35926U 97051UK  13293.48437057  .00006637  00000-0  19272-2 0  5882
2 35926 086.3521 112.0431 0011731 349.5767 039.7872 14.44193765225535
0 IRIDIUM 33 DEB
1 35926U 97051UK  13295.93454603  .00007398  00000-0  21476-2 0  5895
2 35926 086.3526 110.9899 0011602 340.7005 179.3666 14.44219941225896
